{"type": "FeatureCollection", "features": [ {"type": "Feature", "properties": {"norad_id": 38755, "name": "SPOT 6", "group": "resource", "lat": 50.084658738696305, "lon": -117.50459564656391, "alt_km": 692.4219812443071, "timestamp": "2025-12-13T20:38:50.651749+00:00", "meta": {"OBJECT_NAME": "SPOT 6", "OBJECT_ID": "2012-047A", "EPOCH": "2025-12-13T06:53:10.974912", "MEAN_MOTION": 14.58605051, "ECCENTRICITY": 0.00011434, "INCLINATION": 98.1567, "RA_OF_ASC_NODE": 52.061, "ARG_OF_PERICENTER": 97.4821, "MEAN_ANOMALY": 262.6508, "EPHEMERIS_TYPE": 0, "CLASSIFICATION_TYPE": "U", "NORAD_CAT_ID": 38755, "ELEMENT_SET_NO": 999, "REV_AT_EPOCH": 70595, "BSTAR": 0.00020017307, "MEAN_MOTION_DOT": 8.86e-06, "MEAN_MOTION_DDOT": 0}, "tle": {"line1": "1 38755U 12047A   25347.28693258  .00000886  00000+0  20017-3 0  9990", "line2": "2 38755  98.1567  52.0610 0001143  97.4821 262.6508 14.58605051705950"}}, "geometry": {"type": "Point", "coordinates": [-117.50459564656391, 50.084658738696305]}}, {"type": "Feature", "properties": {"norad_id": 39019, "name": "PLEIADES 1B", "group": "resource", "lat": 27.076273483506803, "lon": 56.27743726429911, "alt_km": 696.2788080213641, "timestamp": "2025-12-13T20:38:50.651759+00:00", "meta": {"OBJECT_NAME": "PLEIADES 1B", "OBJECT_ID": "2012-068A", "EPOCH": "2025-12-13T07:21:02.763072", "MEAN_MOTION": 14.58554658, "ECCENTRICITY": 0.0001214, "INCLINATION": 98.1788, "RA_OF_ASC_NODE": 59.9485, "ARG_OF_PERICENTER": 83.8238, "MEAN_ANOMALY": 276.31, "EPHEMERIS_TYPE": 0, "CLASSIFICATION_TYPE": "U", "NORAD_CAT_ID": 39019, "ELEMENT_SET_NO": 999, "REV_AT_EPOCH": 69375, "BSTAR": 0.00019861787, "MEAN_MOTION_DOT": 8.78e-06, "MEAN_MOTION_DDOT": 0}, "tle": {"line1": "1 39019U 12068A   25347.30628198  .00000878  00000+0  19862-3 0  9998", "line2": "2 39019  98.1788  59.9485 0001214  83.8238 276.3100 14.58554658693755"}}, "geometry": {"type": "Point", "coordinates": [56.27743726429911, 27.076273483506803]}}, {"type": "Feature", "properties": {"norad_id": 39030, "name": "GOKTURK 2", "group": "resource", "lat": -49.26625814259604, "lon": -161.51462520514667, "alt_km": 651.7434548669717, "timestamp": "2025-12-13T20:38:50.651769+00:00", "meta": {"OBJECT_NAME": "GOKTURK 2", "OBJECT_ID": "2012-073A", "EPOCH": "2025-12-13T07:51:02.916576", "MEAN_MOTION": 14.75292668, "ECCENTRICITY": 0.00010042, "INCLINATION": 97.6897, "RA_OF_ASC_NODE": 188.9518, "ARG_OF_PERICENTER": 105.2609, "MEAN_ANOMALY": 254.8712, "EPHEMERIS_TYPE": 0, "CLASSIFICATION_TYPE": "U", "NORAD_CAT_ID": 39030, "ELEMENT_SET_NO": 999, "REV_AT_EPOCH": 69710, "BSTAR": 0.00017489254, "MEAN_MOTION_DOT": 1.137e-05, "MEAN_MOTION_DDOT": 0}, "tle": {"line1": "1 39030U 12073A   25347.32711709  .00001137  00000+0  17489-3 0  9992", "line2": "2 39030  97.6897 188.9518 0001004 105.2609 254.8712 14.75292668697103"}}, "geometry": {"type": "Point", "coordinates": [-161.51462520514667, -49.26625814259604]}}, {"type": "Feature", "properties": {"norad_id": 39084, "name": "LANDSAT 8", "group": "resource", "lat": -11.73723605729877, "lon": -125.80114825159681, "alt_km": 707.0702529395539, "timestamp": "2025-12-13T20:38:50.651779+00:00", "meta": {"OBJECT_NAME": "LANDSAT 8", "OBJECT_ID": "2013-008A", "EPOCH": "2025-12-13T06:35:08.757024", "MEAN_MOTION": 14.57115114, "ECCENTRICITY": 0.00010887, "INCLINATION": 98.2073, "RA_OF_ASC_NODE": 55.34, "ARG_OF_PERICENTER": 88.9615, "MEAN_ANOMALY": 271.1708, "EPHEMERIS_TYPE": 0, "CLASSIFICATION_TYPE": "U", "NORAD_CAT_ID": 39084, "ELEMENT_SET_NO": 999, "REV_AT_EPOCH": 67082, "BSTAR": 0.00016378408, "MEAN_MOTION_DOT": 6.93e-06, "MEAN_MOTION_DDOT": 0}, "tle": {"line1": "1 39084U 13008A   25347.27440691  .00000693  00000+0  16378-3 0  9995", "line2": "2 39084  98.2073  55.3400 0001088  88.9615 271.1708 14.57115114670825"}}, "geometry": {"type": "Point", "coordinates": [-125.80114825159681, -11.73723605729877]}}, {"type": "Feature", "properties": {"norad_id": 39086, "name": "SARAL", "group": "resource", "lat": 76.32172814495283, "lon": 133.5931910828515, "alt_km": 773.4548754456237, "timestamp": "2025-12-13T20:38:50.651790+00:00", "meta": {"OBJECT_NAME": "SARAL", "OBJECT_ID": "2013-009A", "EPOCH": "2025-12-13T06:52:13.388448", "MEAN_MOTION": 14.32757372, "ECCENTRICITY": 0.00028784, "INCLINATION": 98.5503, "RA_OF_ASC_NODE": 171.2096, "ARG_OF_PERICENTER": 107.6803, "MEAN_ANOMALY": 252.4695, "EPHEMERIS_TYPE": 0, "CLASSIFICATION_TYPE": "U", "NORAD_CAT_ID": 39086, "ELEMENT_SET_NO": 999, "REV_AT_EPOCH": 66898, "BSTAR": 9.4304164e-05, "MEAN_MOTION_DOT": 2.13e-06, "MEAN_MOTION_DDOT": 0}, "tle": {"line1": "1 39086U 13009A   25347.28626607  .00000213  00000+0  94304-4 0  9996", "line2": "2 39086  98.5503 171.2096 0002878 107.6803 252.4695 14.32757372668985"}}, "geometry": {"type": "Point", "coordinates": [133.5931910828515, 76.32172814495283]}}, {"type": "Feature", "properties": {"norad_id": 39150, "name": "GAOFEN-1", "group": "resource", "lat": 32.63290232495001, "lon": 53.37722254845874, "alt_km": 641.9367309788631, "timestamp": "2025-12-13T20:38:50.651800+00:00", "meta": {"OBJECT_NAME": "GAOFEN-1", "OBJECT_ID": "2013-018A", "EPOCH": "2025-12-13T07:29:12.842880", "MEAN_MOTION": 14.76538626, "ECCENTRICITY": 0.00183032, "INCLINATION": 97.9323, "RA_OF_ASC_NODE": 57.9609, "ARG_OF_PERICENTER": 141.2306, "MEAN_ANOMALY": 219.0221, "EPHEMERIS_TYPE": 0, "CLASSIFICATION_TYPE": "U", "NORAD_CAT_ID": 39150, "ELEMENT_SET_NO": 999, "REV_AT_EPOCH": 68081, "BSTAR": 0.00029642205, "MEAN_MOTION_DOT": 2.021e-05, "MEAN_MOTION_DDOT": 0}, "tle": {"line1": "1 39150U 13018A   25347.31195420  .00002021  00000+0  29642-3 0  9997", "line2": "2 39150  97.9323  57.9609 0018303 141.2306 219.0221 14.76538626680819"}}, "geometry": {"type": "Point", "coordinates": [53.37722254845874, 32.63290232495001]}}, {"type": "Feature", "properties": {"norad_id": 39160, "name": "VNREDSAT 1", "group": "resource", "lat": 48.292927145256115, "lon": 34.08890075150293, "alt_km": 672.1907072551785, "timestamp": "2025-12-13T20:38:50.651810+00:00", "meta": {"OBJECT_NAME": "VNREDSAT 1", "OBJECT_ID": "2013-021B", "EPOCH": "2025-12-13T07:18:38.000736", "MEAN_MOTION": 14.64924843, "ECCENTRICITY": 0.00012881, "INCLINATION": 97.937, "RA_OF_ASC_NODE": 42.5592, "ARG_OF_PERICENTER": 79.17, "MEAN_ANOMALY": 280.9648, "EPHEMERIS_TYPE": 0, "CLASSIFICATION_TYPE": "U", "NORAD_CAT_ID": 39160, "ELEMENT_SET_NO": 999, "REV_AT_EPOCH": 67307, "BSTAR": 0.00023861728, "MEAN_MOTION_DOT": 1.231e-05, "MEAN_MOTION_DDOT": 0}, "tle": {"line1": "1 39160U 13021B   25347.30460649  .00001231  00000+0  23862-3 0  9999", "line2": "2 39160  97.9370  42.5592 0001288  79.1700 280.9648 14.64924843673071"}}, "geometry": {"type": "Point", "coordinates": [34.08890075150293, 48.292927145256115]}}, {"type": "Feature", "properties": {"norad_id": 39227, "name": "ARIRANG-5 (KOMPSAT-5)", "group": "resource", "lat": -71.6619437574592, "lon": -164.04859929971275, "alt_km": 561.7353258880576, "timestamp": "2025-12-13T20:38:50.651820+00:00", "meta": {"OBJECT_NAME": "ARIRANG-5 (KOMPSAT-5)", "OBJECT_ID": "2013-042A", "EPOCH": "2025-12-13T06:36:24.470208", "MEAN_MOTION": 15.04507556, "ECCENTRICITY": 0.00035765, "INCLINATION": 97.6144, "RA_OF_ASC_NODE": 171.5714, "ARG_OF_PERICENTER": 53.6821, "MEAN_ANOMALY": 306.4735, "EPHEMERIS_TYPE": 0, "CLASSIFICATION_TYPE": "U", "NORAD_CAT_ID": 39227, "ELEMENT_SET_NO": 999, "REV_AT_EPOCH": 67590, "BSTAR": 0.00022246447, "MEAN_MOTION_DOT": 3.055e-05, "MEAN_MOTION_DDOT": 0}, "tle": {"line1": "1 39227U 13042A   25347.27528322  .00003055  00000+0  22246-3 0  9996", "line2": "2 39227  97.6144 171.5714 0003576  53.6821 306.4735 15.04507556675901"}}, "geometry": {"type": "Point", "coordinates": [-164.04859929971275, -71.6619437574592]}}, {"type": "Feature", "properties": {"norad_id": 39418, "name": "SKYSAT-A", "group": "resource", "lat": -31.104604406637545, "lon": 42.53926524573153, "alt_km": 538.881293397586, "timestamp": "2025-12-13T20:38:50.651831+00:00", "meta": {"OBJECT_NAME": "SKYSAT-A", "OBJECT_ID": "2013-066C", "EPOCH": "2025-12-13T03:18:37.240128", "MEAN_MOTION": 15.11610457, "ECCENTRICITY": 0.00206646, "INCLINATION": 97.4113, "RA_OF_ASC_NODE": 37.3343, "ARG_OF_PERICENTER": 234.9675, "MEAN_ANOMALY": 124.9617, "EPHEMERIS_TYPE": 0, "CLASSIFICATION_TYPE": "U", "NORAD_CAT_ID": 39418, "ELEMENT_SET_NO": 999, "REV_AT_EPOCH": 66036, "BSTAR": 0.00032538415, "MEAN_MOTION_DOT": 5.491e-05, "MEAN_MOTION_DDOT": 0}, "tle": {"line1": "1 39418U 13066C   25347.13793102  .00005491  00000+0  32538-3 0  9990", "line2": "2 39418  97.4113  37.3343 0020664 234.9675 124.9617 15.11610457660361"}}, "geometry": {"type": "Point", "coordinates": [42.53926524573153, -31.104604406637545]}}, {"type": "Feature", "properties": {"norad_id": 39419, "name": "DUBAISAT-2", "group": "resource", "lat": 79.38343344879449, "lon": -157.52455425804288, "alt_km": 539.4107482263735, "timestamp": "2025-12-13T20:38:50.651842+00:00", "meta": {"OBJECT_NAME": "DUBAISAT-2", "OBJECT_ID": "2013-066D", "EPOCH": "2025-12-13T05:53:14.445312", "MEAN_MOTION": 15.08370473, "ECCENTRICITY": 0.00106334, "INCLINATION": 97.4457, "RA_OF_ASC_NODE": 337.637, "ARG_OF_PERICENTER": 319.9426, "MEAN_ANOMALY": 40.1018, "EPHEMERIS_TYPE": 0, "CLASSIFICATION_TYPE": "U", "NORAD_CAT_ID": 39419, "ELEMENT_SET_NO": 999, "REV_AT_EPOCH": 65834, "BSTAR": 0.00053624853, "MEAN_MOTION_DOT": 8.286e-05, "MEAN_MOTION_DDOT": 0}, "tle": {"line1": "1 39419U 13066D   25347.24530608  .00008286  00000+0  53625-3 0  9998", "line2": "2 39419  97.4457 337.6370 0010633 319.9426  40.1018 15.08370473658348"}}, "geometry": {"type": "Point", "coordinates": [-157.52455425804288, 79.38343344879449]}}]}